{
  "norad_id": 61665,
  "name": "STARLINK-32439",
  "history": [
    {
      "epoch": "2026-03-28T21:40:09.414336Z",
      "apogee_km": 476.1976669359028,
      "perigee_km": 474.2130760519649,
      "latitude_deg": -6.748650190013861e-05,
      "longitude_deg": -149.26863838242414,
      "height_km": 476.3429159167841,
      "semi_major_axis_km": 6853.342371493934,
      "eccentricity": 0.00014479,
      "inclination_deg": 53.1627,
      "raan_deg": 2.0873,
      "arg_perigee_deg": 103.9584,
      "mean_anomaly_deg": 256.1577,
      "mean_motion_rev_day": 15.30203248
    },
    {
      "epoch": "2026-03-29T03:56:22.712928Z",
      "apogee_km": 475.87636827525967,
      "perigee_km": 474.57422943847814,
      "latitude_deg": 1.3570216385512016e-05,
      "longitude_deg": 115.21049668323305,
      "height_km": 475.759529395245,
      "semi_major_axis_km": 6853.362298856869,
      "eccentricity": 9.5e-05,
      "inclination_deg": 53.1633,
      "raan_deg": 0.8793,
      "arg_perigee_deg": 55.9176,
      "mean_anomaly_deg": 304.1915,
      "mean_motion_rev_day": 15.30196574
    },
    {
      "epoch": "2026-03-30T03:27:11.917152Z",
      "apogee_km": 476.17748500859307,
      "perigee_km": 474.3256994109779,
      "latitude_deg": 8.896013910315377e-06,
      "longitude_deg": 116.98510416790467,
      "height_km": 476.065273838285,
      "semi_major_axis_km": 6853.388592209785,
      "eccentricity": 0.0001351,
      "inclination_deg": 53.1623,
      "raan_deg": 356.3246,
      "arg_perigee_deg": 84.7617,
      "mean_anomaly_deg": 275.3538,
      "mean_motion_rev_day": 15.30187768
    },
    {
      "epoch": "2026-03-30T11:17:27.102048Z",
      "apogee_km": 476.1639356672249,
      "perigee_km": 474.2514412984574,
      "latitude_deg": 1.671670678803328e-05,
      "longitude_deg": -2.4118368254776867,
      "height_km": 475.7769226072566,
      "semi_major_axis_km": 6853.344688482841,
      "eccentricity": 0.00013953,
      "inclination_deg": 53.1625,
      "raan_deg": 354.8128,
      "arg_perigee_deg": 69.8722,
      "mean_anomaly_deg": 290.2429,
      "mean_motion_rev_day": 15.30202472
    },
    {
      "epoch": "2026-03-30T17:33:39.420864Z",
      "apogee_km": 475.9178793796782,
      "perigee_km": 474.47771960491264,
      "latitude_deg": -2.2077647839182063e-06,
      "longitude_deg": -97.93628240894999,
      "height_km": 475.6732505564789,
      "semi_major_axis_km": 6853.334799492295,
      "eccentricity": 0.00010507,
      "inclination_deg": 53.1626,
      "raan_deg": 353.5972,
      "arg_perigee_deg": 53.9778,
      "mean_anomaly_deg": 306.132,
      "mean_motion_rev_day": 15.30205784
    },
    {
      "epoch": "2026-03-31T20:12:34.613856Z",
      "apogee_km": 476.18491760665074,
      "perigee_km": 474.30023822272415,
      "latitude_deg": 1.9284159333164762e-05,
      "longitude_deg": -143.9181574762632,
      "height_km": 475.77385855352117,
      "semi_major_axis_km": 6853.379577914688,
      "eccentricity": 0.0001375,
      "inclination_deg": 53.1606,
      "raan_deg": 348.4397,
      "arg_perigee_deg": 67.0883,
      "mean_anomaly_deg": 293.0263,
      "mean_motion_rev_day": 15.30190787
    },
    {
      "epoch": "2026-04-01T21:17:25.011456Z",
      "apogee_km": 476.1758153325518,
      "perigee_km": 474.25824687464956,
      "latitude_deg": -1.3137133519375946e-05,
      "longitude_deg": -166.01369666780013,
      "height_km": 475.8593362691761,
      "semi_major_axis_km": 6853.3540311036,
      "eccentricity": 0.0001399,
      "inclination_deg": 53.1602,
      "raan_deg": 343.5842,
      "arg_perigee_deg": 74.5331,
      "mean_anomaly_deg": 285.5824,
      "mean_motion_rev_day": 15.30199343
    },
    {
      "epoch": "2026-04-02T20:48:12.523104Z",
      "apogee_km": 476.0870517922858,
      "perigee_km": 474.3051851814789,
      "latitude_deg": -4.393558080885421e-05,
      "longitude_deg": -164.227336785667,
      "height_km": 475.9134981577585,
      "semi_major_axis_km": 6853.333118486882,
      "eccentricity": 0.00013,
      "inclination_deg": 53.1597,
      "raan_deg": 339.0342,
      "arg_perigee_deg": 78.2999,
      "mean_anomaly_deg": 281.8147,
      "mean_motion_rev_day": 15.30206347
    },
    {
      "epoch": "2026-04-02T22:22:15.668256Z",
      "apogee_km": 476.10863532429903,
      "perigee_km": 474.2712583698485,
      "latitude_deg": 2.7373056832335524e-06,
      "longitude_deg": 171.89151664013107,
      "height_km": 475.8981391948691,
      "semi_major_axis_km": 6853.3269468470735,
      "eccentricity": 0.00013405,
      "inclination_deg": 53.1597,
      "raan_deg": 338.7305,
      "arg_perigee_deg": 78.0769,
      "mean_anomaly_deg": 282.0382,
      "mean_motion_rev_day": 15.30208414
    },
    {
      "epoch": "2026-04-03T01:30:21.908448Z",
      "apogee_km": 476.1260266490726,
      "perigee_km": 474.25273841567105,
      "latitude_deg": -2.954023496450059e-05,
      "longitude_deg": 124.12953921929298,
      "height_km": 475.9408364394633,
      "semi_major_axis_km": 6853.326382532371,
      "eccentricity": 0.00013667,
      "inclination_deg": 53.1597,
      "raan_deg": 338.1233,
      "arg_perigee_deg": 81.0021,
      "mean_anomaly_deg": 279.1134,
      "mean_motion_rev_day": 15.30208603
    },
    {
      "epoch": "2026-04-04T19:49:48.794016Z",
      "apogee_km": 476.054105055181,
      "perigee_km": 474.3325484770976,
      "latitude_deg": 6.420262023520055e-05,
      "longitude_deg": -160.6598054467163,
      "height_km": 476.2500058375937,
      "semi_major_axis_km": 6853.330326766139,
      "eccentricity": 0.0001256,
      "inclination_deg": 53.1584,
      "raan_deg": 329.9341,
      "arg_perigee_deg": 100.6268,
      "mean_anomaly_deg": 259.4875,
      "mean_motion_rev_day": 15.30207282
    },
    {
      "epoch": "2026-04-05T08:22:14.657664Z",
      "apogee_km": 475.76339109943,
      "perigee_km": 474.7367537159844,
      "latitude_deg": -3.051844533932436e-05,
      "longitude_deg": 8.288937227118309,
      "height_km": 476.3068688511446,
      "semi_major_axis_km": 6853.387072407707,
      "eccentricity": 7.49e-05,
      "inclination_deg": 53.1579,
      "raan_deg": 327.5057,
      "arg_perigee_deg": 107.9511,
      "mean_anomaly_deg": 252.1571,
      "mean_motion_rev_day": 15.30188277
    },
    {
      "epoch": "2026-04-05T20:54:40.295808Z",
      "apogee_km": 475.78090102462374,
      "perigee_km": 474.6473567479052,
      "latitude_deg": -3.66240817168556e-05,
      "longitude_deg": 177.2407879534303,
      "height_km": 476.1146146621281,
      "semi_major_axis_km": 6853.351128886264,
      "eccentricity": 8.27e-05,
      "inclination_deg": 53.1575,
      "raan_deg": 325.0794,
      "arg_perigee_deg": 90.2103,
      "mean_anomaly_deg": 269.8992,
      "mean_motion_rev_day": 15.30200315
    },
    {
      "epoch": "2026-04-06T00:02:46.633632Z",
      "apogee_km": 475.84725126668127,
      "perigee_km": 474.54552912254803,
      "latitude_deg": -4.9046067982756026e-05,
      "longitude_deg": 129.47651713384906,
      "height_km": 475.90233801445333,
      "semi_major_axis_km": 6853.333390194614,
      "eccentricity": 9.497e-05,
      "inclination_deg": 53.1578,
      "raan_deg": 324.4703,
      "arg_perigee_deg": 72.8067,
      "mean_anomaly_deg": 287.3037,
      "mean_motion_rev_day": 15.30206256
    },
    {
      "epoch": "2026-04-07T15:14:06.329472Z",
      "apogee_km": 476.0941529021002,
      "perigee_km": 474.35339926497545,
      "latitude_deg": -1.8766526094060368e-05,
      "longitude_deg": -107.54715765028837,
      "height_km": 476.12873437122136,
      "semi_major_axis_km": 6853.3607760835375,
      "eccentricity": 0.000127,
      "inclination_deg": 53.1589,
      "raan_deg": 316.8881,
      "arg_perigee_deg": 90.4608,
      "mean_anomaly_deg": 269.6538,
      "mean_motion_rev_day": 15.30197084
    },
    {
      "epoch": "2026-04-07T18:22:12.751104Z",
      "apogee_km": 476.078618603251,
      "perigee_km": 474.3762428786549,
      "latitude_deg": 1.5497037745997757e-06,
      "longitude_deg": -155.30955438128163,
      "height_km": 476.14845567858555,
      "semi_major_axis_km": 6853.364430740953,
      "eccentricity": 0.0001242,
      "inclination_deg": 53.1589,
      "raan_deg": 316.2812,
      "arg_perigee_deg": 91.5505,
      "mean_anomaly_deg": 268.5638,
      "mean_motion_rev_day": 15.3019586
    },
    {
      "epoch": "2026-04-08T14:44:54.282624Z",
      "apogee_km": 475.96242465827254,
      "perigee_km": 474.4927891519674,
      "latitude_deg": -6.7469136170914595e-06,
      "longitude_deg": -105.76401421568052,
      "height_km": 476.0618817391203,
      "semi_major_axis_km": 6853.364606905119,
      "eccentricity": 0.00010722,
      "inclination_deg": 53.1587,
      "raan_deg": 312.3367,
      "arg_perigee_deg": 85.0085,
      "mean_anomaly_deg": 275.1038,
      "mean_motion_rev_day": 15.30195801
    },
    {
      "epoch": "2026-04-09T18:57:51.755904Z",
      "apogee_km": 475.96419887107913,
      "perigee_km": 474.4811318394977,
      "latitude_deg": -8.690404756400875e-07,
      "longitude_deg": -175.6234738235264,
      "height_km": 476.04377899318376,
      "semi_major_axis_km": 6853.359665355289,
      "eccentricity": 0.0001082,
      "inclination_deg": 53.1598,
      "raan_deg": 306.8755,
      "arg_perigee_deg": 84.0239,
      "mean_anomaly_deg": 276.0885,
      "mean_motion_rev_day": 15.30197456
    },
    {
      "epoch": "2026-04-09T20:31:54.971904Z",
      "apogee_km": 475.96499020123156,
      "perigee_km": 474.4819229984241,
      "latitude_deg": -6.196929844185234e-05,
      "longitude_deg": 160.49560306241625,
      "height_km": 476.03198258762126,
      "semi_major_axis_km": 6853.360456599828,
      "eccentricity": 0.0001082,
      "inclination_deg": 53.1599,
      "raan_deg": 306.5724,
      "arg_perigee_deg": 83.0433,
      "mean_anomaly_deg": 277.069,
      "mean_motion_rev_day": 15.30197191
    }
  ]
}